{"fetched_at":"2026-07-23T07:05:23.680Z","source":"https://celestrak.org/NORAD/elements/gp.php?GROUP=spire&FORMAT=JSON","constellation":"spire","records":[{"OBJECT_NAME":"LEMUR-2-VALHALLA","OBJECT_ID":"2024-022B","EPOCH":"2026-07-22T13:09:25.385472","CLASSIFICATION_TYPE":"U","MEAN_MOTION":15.40649804,"ECCENTRICITY":0.00084318,"INCLINATION":97.4084,"RA_OF_ASC_NODE":53.9852,"ARG_OF_PERICENTER":357.9384,"MEAN_ANOMALY":2.1826,"EPHEMERIS_TYPE":0,"NORAD_CAT_ID":58900,"ELEMENT_SET_NO":999,"REV_AT_EPOCH":13771,"BSTAR":0.00041620859,"MEAN_MOTION_DOT":0.00016915,"MEAN_MOTION_DDOT":0},{"OBJECT_NAME":"LEMUR-2-CAEL","OBJECT_ID":"2024-022E","EPOCH":"2026-07-22T20:26:28.966560","CLASSIFICATION_TYPE":"U","MEAN_MOTION":15.42046949,"ECCENTRICITY":0.00062969,"INCLINATION":97.4063,"RA_OF_ASC_NODE":55.2932,"ARG_OF_PERICENTER":340.1607,"MEAN_ANOMALY":19.9394,"EPHEMERIS_TYPE":0,"NORAD_CAT_ID":58903,"ELEMENT_SET_NO":999,"REV_AT_EPOCH":13783,"BSTAR":0.00046481546,"MEAN_MOTION_DOT":0.00019795,"MEAN_MOTION_DDOT":0},{"OBJECT_NAME":"LEMUR-2-JOHNNYTRUONG","OBJECT_ID":"2024-043BA","EPOCH":"2026-07-22T21:38:17.906496","CLASSIFICATION_TYPE":"U","MEAN_MOTION":15.63055792,"ECCENTRICITY":0.00036625,"INCLINATION":97.5397,"RA_OF_ASC_NODE":357.895,"ARG_OF_PERICENTER":66.7788,"MEAN_ANOMALY":293.3855,"EPHEMERIS_TYPE":0,"NORAD_CAT_ID":59146,"ELEMENT_SET_NO":999,"REV_AT_EPOCH":13361,"BSTAR":0.00054920985,"MEAN_MOTION_DOT":0.00050008,"MEAN_MOTION_DDOT":0},{"OBJECT_NAME":"LEMUR-2-TOMATOKECHUP","OBJECT_ID":"2024-149D","EPOCH":"2026-07-22T11:21:10.254240","CLASSIFICATION_TYPE":"U","MEAN_MOTION":15.3668921,"ECCENTRICITY":0.00034425,"INCLINATION":97.3786,"RA_OF_ASC_NODE":285.6244,"ARG_OF_PERICENTER":109.2295,"MEAN_ANOMALY":250.9322,"EPHEMERIS_TYPE":0,"NORAD_CAT_ID":60471,"ELEMENT_SET_NO":999,"REV_AT_EPOCH":10758,"BSTAR":0.00032304117,"MEAN_MOTION_DOT":0.000115,"MEAN_MOTION_DDOT":0},{"OBJECT_NAME":"LEMUR-2-STELLA","OBJECT_ID":"2024-149BT","EPOCH":"2026-07-22T16:22:27.124032","CLASSIFICATION_TYPE":"U","MEAN_MOTION":15.12482958,"ECCENTRICITY":0.00015015,"INCLINATION":97.6726,"RA_OF_ASC_NODE":286.3083,"ARG_OF_PERICENTER":121.6728,"MEAN_ANOMALY":238.4648,"EPHEMERIS_TYPE":0,"NORAD_CAT_ID":60533,"ELEMENT_SET_NO":999,"REV_AT_EPOCH":10586,"BSTAR":0.00067449338,"MEAN_MOTION_DOT":0.00011681,"MEAN_MOTION_DDOT":0},{"OBJECT_NAME":"LEMUR-2-MARHISYAM","OBJECT_ID":"2024-149BW","EPOCH":"2026-07-22T05:06:28.564704","CLASSIFICATION_TYPE":"U","MEAN_MOTION":15.11867364,"ECCENTRICITY":0.00021285,"INCLINATION":97.6869,"RA_OF_ASC_NODE":286.3201,"ARG_OF_PERICENTER":58.8291,"MEAN_ANOMALY":301.3148,"EPHEMERIS_TYPE":0,"NORAD_CAT_ID":60536,"ELEMENT_SET_NO":999,"REV_AT_EPOCH":10577,"BSTAR":0.00059472169,"MEAN_MOTION_DOT":0.00010114,"MEAN_MOTION_DDOT":0},{"OBJECT_NAME":"LEMUR-2-AHMED-ASRAR","OBJECT_ID":"2024-149DN","EPOCH":"2026-07-22T11:26:26.479104","CLASSIFICATION_TYPE":"U","MEAN_MOTION":15.13417372,"ECCENTRICITY":0.00018456,"INCLINATION":97.6993,"RA_OF_ASC_NODE":288.8178,"ARG_OF_PERICENTER":178.9273,"MEAN_ANOMALY":181.1962,"EPHEMERIS_TYPE":0,"NORAD_CAT_ID":60576,"ELEMENT_SET_NO":999,"REV_AT_EPOCH":10590,"BSTAR":0.00068476123,"MEAN_MOTION_DOT":0.00012174,"MEAN_MOTION_DDOT":0},{"OBJECT_NAME":"LEMUR-2-LLOYD","OBJECT_ID":"2024-149DP","EPOCH":"2026-07-22T16:53:53.686176","CLASSIFICATION_TYPE":"U","MEAN_MOTION":15.09849237,"ECCENTRICITY":0.00041249,"INCLINATION":97.6736,"RA_OF_ASC_NODE":284.8654,"ARG_OF_PERICENTER":51.6067,"MEAN_ANOMALY":308.5532,"EPHEMERIS_TYPE":0,"NORAD_CAT_ID":60577,"ELEMENT_SET_NO":999,"REV_AT_EPOCH":10575,"BSTAR":0.00069451176,"MEAN_MOTION_DOT":0.00011184,"MEAN_MOTION_DDOT":0},{"OBJECT_NAME":"LEMUR-2-SQUIRRELCOMM","OBJECT_ID":"2024-149DQ","EPOCH":"2026-07-22T04:09:28.674720","CLASSIFICATION_TYPE":"U","MEAN_MOTION":15.07496745,"ECCENTRICITY":0.00039732,"INCLINATION":97.67,"RA_OF_ASC_NODE":283.9805,"ARG_OF_PERICENTER":293.1589,"MEAN_ANOMALY":66.922,"EPHEMERIS_TYPE":0,"NORAD_CAT_ID":60578,"ELEMENT_SET_NO":999,"REV_AT_EPOCH":10567,"BSTAR":0.00041251545,"MEAN_MOTION_DOT":0.00006199,"MEAN_MOTION_DDOT":0},{"OBJECT_NAME":"LEMUR-2-SIERRINI","OBJECT_ID":"2024-149DR","EPOCH":"2026-07-22T16:57:05.145984","CLASSIFICATION_TYPE":"U","MEAN_MOTION":15.11623778,"ECCENTRICITY":0.00060567,"INCLINATION":97.6832,"RA_OF_ASC_NODE":286.4706,"ARG_OF_PERICENTER":70.5885,"MEAN_ANOMALY":289.5999,"EPHEMERIS_TYPE":0,"NORAD_CAT_ID":60579,"ELEMENT_SET_NO":999,"REV_AT_EPOCH":10582,"BSTAR":0.00073970429,"MEAN_MOTION_DOT":0.0001252,"MEAN_MOTION_DDOT":0},{"OBJECT_NAME":"LEMUR-2-WILSON","OBJECT_ID":"2025-009CP","EPOCH":"2026-07-22T03:52:22.044864","CLASSIFICATION_TYPE":"U","MEAN_MOTION":14.95296152,"ECCENTRICITY":0.0001562,"INCLINATION":97.7015,"RA_OF_ASC_NODE":281.0127,"ARG_OF_PERICENTER":282.8389,"MEAN_ANOMALY":77.2657,"EPHEMERIS_TYPE":0,"NORAD_CAT_ID":62694,"ELEMENT_SET_NO":999,"REV_AT_EPOCH":8258,"BSTAR":0.00018779581,"MEAN_MOTION_DOT":0.00002012,"MEAN_MOTION_DDOT":0},{"OBJECT_NAME":"LEMUR-2-STAR-FOX","OBJECT_ID":"2025-009CR","EPOCH":"2026-07-22T15:36:43.182720","CLASSIFICATION_TYPE":"U","MEAN_MOTION":15.02914232,"ECCENTRICITY":0.00014189,"INCLINATION":97.6903,"RA_OF_ASC_NODE":285.0039,"ARG_OF_PERICENTER":11.0222,"MEAN_ANOMALY":349.1034,"EPHEMERIS_TYPE":0,"NORAD_CAT_ID":62696,"ELEMENT_SET_NO":999,"REV_AT_EPOCH":8288,"BSTAR":0.00059689529,"MEAN_MOTION_DOT":0.00007956,"MEAN_MOTION_DDOT":0},{"OBJECT_NAME":"LEMUR-2-ARIANNA","OBJECT_ID":"2025-009CU","EPOCH":"2026-07-22T04:23:22.458912","CLASSIFICATION_TYPE":"U","MEAN_MOTION":15.02911553,"ECCENTRICITY":0.00018268,"INCLINATION":97.6845,"RA_OF_ASC_NODE":284.2864,"ARG_OF_PERICENTER":23.9997,"MEAN_ANOMALY":336.1313,"EPHEMERIS_TYPE":0,"NORAD_CAT_ID":62699,"ELEMENT_SET_NO":999,"REV_AT_EPOCH":8281,"BSTAR":0.00060161092,"MEAN_MOTION_DOT":0.00008019,"MEAN_MOTION_DDOT":0},{"OBJECT_NAME":"LEMUR-2-ALISIA","OBJECT_ID":"2025-009DB","EPOCH":"2026-07-22T16:28:10.582176","CLASSIFICATION_TYPE":"U","MEAN_MOTION":15.03251783,"ECCENTRICITY":0.00050149,"INCLINATION":97.6958,"RA_OF_ASC_NODE":285.6256,"ARG_OF_PERICENTER":109.899,"MEAN_ANOMALY":250.2776,"EPHEMERIS_TYPE":0,"NORAD_CAT_ID":62706,"ELEMENT_SET_NO":999,"REV_AT_EPOCH":10549,"BSTAR":0.00059508041,"MEAN_MOTION_DOT":0.00008005,"MEAN_MOTION_DDOT":0},{"OBJECT_NAME":"LEMUR-2-ROUNDTRIPPER","OBJECT_ID":"2025-009DG","EPOCH":"2026-07-22T16:28:03.397152","CLASSIFICATION_TYPE":"U","MEAN_MOTION":15.0431086,"ECCENTRICITY":0.00043136,"INCLINATION":97.7239,"RA_OF_ASC_NODE":286.3251,"ARG_OF_PERICENTER":49.3473,"MEAN_ANOMALY":310.8127,"EPHEMERIS_TYPE":0,"NORAD_CAT_ID":62711,"ELEMENT_SET_NO":999,"REV_AT_EPOCH":8296,"BSTAR":0.00059140592,"MEAN_MOTION_DOT":0.00008183,"MEAN_MOTION_DDOT":0},{"OBJECT_NAME":"LEMUR-2-MYNAMEISJEFF","OBJECT_ID":"2025-009DH","EPOCH":"2026-07-22T11:38:35.047104","CLASSIFICATION_TYPE":"U","MEAN_MOTION":15.04300993,"ECCENTRICITY":0.00043178,"INCLINATION":97.7284,"RA_OF_ASC_NODE":286.5267,"ARG_OF_PERICENTER":82.8993,"MEAN_ANOMALY":277.2724,"EPHEMERIS_TYPE":0,"NORAD_CAT_ID":62712,"ELEMENT_SET_NO":999,"REV_AT_EPOCH":8293,"BSTAR":0.00061900455,"MEAN_MOTION_DOT":0.00008566,"MEAN_MOTION_DDOT":0}]}
